COSMOS 2425 (716)       
1 29670U 06062A   21063.62263874  .00000074  00000-0  00000-0 0  9999
2 29670  64.8735 258.9898 0024730 349.8182  13.7863  2.13113612110447
COSMOS 2433 (720)       
1 32275U 07052A   21062.66958206 -.00000044  00000-0  00000-0 0  9995
2 32275  66.0462  20.2977 0004733 272.1378 258.6621  2.13104248103930
COSMOS 2432 (719)       
1 32276U 07052B   21063.81854650 -.00000048  00000-0  00000+0 0  9995
2 32276  66.0575  20.3529 0012370 323.1807 318.5937  2.13103617103957
COSMOS 2434 (721)       
1 32393U 07065A   21063.52996192  .00000075  00000-0  00000-0 0  9995
2 32393  64.4855 257.5008 0004952  77.5641 281.3893  2.13103168102654
COSMOS 2436 (723)       
1 32395U 07065C   21063.81234266  .00000076  00000-0  00000-0 0  9997
2 32395  64.4999 257.5433 0016139   7.3924 344.3289  2.13103009102598
COSMOS 2456 (730)       
1 36111U 09070A   21063.91309427 -.00000002  00000-0  00000-0 0  9998
2 36111  64.2588 137.1673 0004076 310.5743 154.2287  2.13099165 87331
COSMOS 2457 (733)       
1 36112U 09070B   21062.74587293  .00000013  00000-0  00000-0 0  9999
2 36112  64.2423 137.0942 0005288 170.6002 242.3000  2.13101400 87313
COSMOS 2459 (731)       
1 36400U 10007A   21063.89079948 -.00000050  00000-0  00000-0 0  9993
2 36400  65.9435  19.1953 0026816 345.5771 258.3595  2.13105144 85674
COSMOS 2461 (735)       
1 36401U 10007B   21063.88809323 -.00000050  00000-0  00000-0 0  9991
2 36401  65.9397  19.1594 0021109   0.7272 242.9252  2.13103867 85689
COSMOS 2460 (732)       
1 36402U 10007C   21063.41715068 -.00000048  00000-0  00000+0 0  9999
2 36402  65.9252  19.1368 0002488 304.0027 242.1218  2.13106627 85676
COSMOS 2464 (736)       
1 37139U 10041C   21062.68998757  .00000070  00000-0  00000-0 0  9996
2 37139  64.0890 256.8404 0029148  14.0360 282.2129  2.13100781 81715
COSMOS 2471 (701K)      
1 37372U 11009A   21063.58384750 -.00000049  00000-0  00000+0 0  9998
2 37372  65.9268  19.0633 0011288 237.4619 240.0247  2.13080799 77950
COSMOS 2476 (744)       
1 37867U 11064A   21063.81044176 -.00000001  00000-0  00000-0 0  9998
2 37867  64.5552 138.3423 0020677 237.6102  49.8965  2.13101913 72671
COSMOS 2477 (745)       
1 37868U 11064B   21063.02179440  .00000010  00000-0  00000-0 0  9994
2 37868  64.5645 138.4293 0018215 238.5025 342.3535  2.13101713 72616
COSMOS 2475 (743)       
1 37869U 11064C   21063.01903977  .00000010  00000-0  00000-0 0  9994
2 37869  64.5702 138.4320 0022076 258.4290 277.9191  2.13101856 72627
COSMOS 2485 (747)       
1 39155U 13019A   21063.84248098 -.00000001  00000-0  00000-0 0  9994
2 39155  64.7212 138.6683 0021083 232.8982 123.6856  2.13101868 61143
COSMOS 2492 (754)       
1 39620U 14012A   21063.91608086 -.00000051  00000-0  00000-0 0  9995
2 39620  65.8152  18.8654 0015571 321.2106 126.7451  2.13103327 54103
COSMOS 2500 (755)       
1 40001U 14032A   21063.14248455 -.00000048  00000-0  00000-0 0  9993
2 40001  65.7555  18.7879 0006504 226.6278 207.7306  2.13102576 52300
COSMOS 2501 (702K)      
1 40315U 14075A   21062.75309978  .00000069  00000-0  00000-0 0  9994
2 40315  63.8035 257.6849 0015387 207.0990  94.4921  2.13101333 48695
COSMOS 2514 (751)       
1 41330U 16008A   21063.50928885 -.00000050  00000-0  00000-0 0  9999
2 41330  65.5572  18.5833 0010233 227.7293 310.9752  2.13103028 39472
COSMOS 2516 (753)       
1 41554U 16032A   21063.90582794  .00000075  00000-0  00000-0 0  9999
2 41554  64.0272 257.7881 0011109 213.7966 162.0980  2.13106824 37098
COSMOS 2522 (752)       
1 42939U 17055A   21063.35916022  .00000073  00000-0  00000-0 0  9995
2 42939  64.2630 258.0628 0005061 250.4066 291.1217  2.13102070 26834
COSMOS 2527 (756)       
1 43508U 18053A   21063.88540012 -.00000002  00000-0  00000-0 0  9990
2 43508  64.8857 138.5688 0007929 231.0299  26.2215  2.13102619 21132
COSMOS 2529 (757)       
1 43687U 18086A   21063.38135580  .00000073  00000-0  00000-0 0  9996
2 43687  64.4749 258.2526 0007781 280.4925 233.6144  2.13102152 18141
COSMOS 2534 (758)       
1 44299U 19030A   21063.17318662  .00000072  00000-0  00000-0 0  9996
2 44299  64.5440 258.1023 0011313 300.1458 189.1383  2.13101951 13789
COSMOS 2544 (759)       
1 44850U 19088A   21063.48615101  .00000004  00000-0  00000-0 0  9999
2 44850  64.8704 138.4440 0012162 263.0498  91.7619  2.13102432  9561
COSMOS 2545 (760)       
1 45358U 20018A   21063.45223472 -.00000050  00000-0  00000-0 0  9993
2 45358  64.8878  19.5798 0010450 260.8073 278.1361  2.13102822  7515
